CCSDS_OMM_VERS = 2.0
CREATION_DATE  = 
ORIGINATOR     = 

OBJECT_NAME    = STARLINK-37198
OBJECT_ID      = 2026-063G
CENTER_NAME    = EARTH
REF_FRAME      = TEME
TIME_SYSTEM    = UTC
MEAN_ELEMENT_THEORY = SGP/SGP4

EPOCH          = 2026-04-02T18:00:02.000160
MEAN_MOTION    = 15.98780711
ECCENTRICITY   = .0001542
INCLINATION    = 97.2825
RA_OF_ASC_NODE = 233.5446
ARG_OF_PERICENTER = 70.5188
MEAN_ANOMALY   = 85.6578

EPHEMERIS_TYPE = 0
CLASSIFICATION_TYPE = U
NORAD_CAT_ID   = 68386
ELEMENT_SET_NO = 999
REV_AT_EPOCH   = 232
BSTAR          = -.37378471E-2
MEAN_MOTION_DOT = -.1753101E-1
MEAN_MOTION_DDOT = .91586127E-3

CCSDS_OMM_VERS = 2.0
CREATION_DATE  = 
ORIGINATOR     = 

OBJECT_NAME    = STARLINK-37223
OBJECT_ID      = 2026-063H
CENTER_NAME    = EARTH
REF_FRAME      = TEME
TIME_SYSTEM    = UTC
MEAN_ELEMENT_THEORY = SGP/SGP4

EPOCH          = 2026-04-02T18:00:02.000160
MEAN_MOTION    = 15.98921873
ECCENTRICITY   = .00015587
INCLINATION    = 97.2826
RA_OF_ASC_NODE = 233.5458
ARG_OF_PERICENTER = 72.4191
MEAN_ANOMALY   = 86.1565

EPHEMERIS_TYPE = 0
CLASSIFICATION_TYPE = U
NORAD_CAT_ID   = 68387
ELEMENT_SET_NO = 999
REV_AT_EPOCH   = 232
BSTAR          = -.37321119E-2
MEAN_MOTION_DOT = -.1764094E-1
MEAN_MOTION_DDOT = .92812877E-3

CCSDS_OMM_VERS = 2.0
CREATION_DATE  = 
ORIGINATOR     = 

OBJECT_NAME    = STARLINK-37203
OBJECT_ID      = 2026-063J
CENTER_NAME    = EARTH
REF_FRAME      = TEME
TIME_SYSTEM    = UTC
MEAN_ELEMENT_THEORY = SGP/SGP4

EPOCH          = 2026-04-02T18:00:02.000160
MEAN_MOTION    = 15.99071903
ECCENTRICITY   = .00016386
INCLINATION    = 97.2824
RA_OF_ASC_NODE = 233.5467
ARG_OF_PERICENTER = 69.2200
MEAN_ANOMALY   = 91.8635

EPHEMERIS_TYPE = 0
CLASSIFICATION_TYPE = U
NORAD_CAT_ID   = 68388
ELEMENT_SET_NO = 999
REV_AT_EPOCH   = 232
BSTAR          = -.376806E-2
MEAN_MOTION_DOT = -.1795699E-1
MEAN_MOTION_DDOT = .96120668E-3

CCSDS_OMM_VERS = 2.0
CREATION_DATE  = 
ORIGINATOR     = 

OBJECT_NAME    = STARLINK-37197
OBJECT_ID      = 2026-063K
CENTER_NAME    = EARTH
REF_FRAME      = TEME
TIME_SYSTEM    = UTC
MEAN_ELEMENT_THEORY = SGP/SGP4

EPOCH          = 2026-04-02T18:00:02.000160
MEAN_MOTION    = 15.99332269
ECCENTRICITY   = .00016581
INCLINATION    = 97.2824
RA_OF_ASC_NODE = 233.5491
ARG_OF_PERICENTER = 70.4169
MEAN_ANOMALY   = 95.0063

EPHEMERIS_TYPE = 0
CLASSIFICATION_TYPE = U
NORAD_CAT_ID   = 68389
ELEMENT_SET_NO = 999
REV_AT_EPOCH   = 232
BSTAR          = -.37283175E-2
MEAN_MOTION_DOT = -.180274E-1
MEAN_MOTION_DDOT = .97117687E-3

CCSDS_OMM_VERS = 2.0
CREATION_DATE  = 
ORIGINATOR     = 

OBJECT_NAME    = STARLINK-37193
OBJECT_ID      = 2026-063L
CENTER_NAME    = EARTH
REF_FRAME      = TEME
TIME_SYSTEM    = UTC
MEAN_ELEMENT_THEORY = SGP/SGP4

EPOCH          = 2026-04-02T18:00:02.000160
MEAN_MOTION    = 16.02419362
ECCENTRICITY   = .00002835
INCLINATION    = 97.2826
RA_OF_ASC_NODE = 233.5495
ARG_OF_PERICENTER = 136.7849
MEAN_ANOMALY   = 29.7854

EPHEMERIS_TYPE = 0
CLASSIFICATION_TYPE = U
NORAD_CAT_ID   = 68390
ELEMENT_SET_NO = 999
REV_AT_EPOCH   = 232
BSTAR          = .17611062E-2
MEAN_MOTION_DOT = .1016607E-1
MEAN_MOTION_DDOT = .53474679E-3

CCSDS_OMM_VERS = 2.0
CREATION_DATE  = 
ORIGINATOR     = 

OBJECT_NAME    = STARLINK-37216
OBJECT_ID      = 2026-063M
CENTER_NAME    = EARTH
REF_FRAME      = TEME
TIME_SYSTEM    = UTC
MEAN_ELEMENT_THEORY = SGP/SGP4

EPOCH          = 2026-04-02T18:00:02.000160
MEAN_MOTION    = 15.99447323
ECCENTRICITY   = .00015299
INCLINATION    = 97.2823
RA_OF_ASC_NODE = 233.5498
ARG_OF_PERICENTER = 75.5954
MEAN_ANOMALY   = 91.9601

EPHEMERIS_TYPE = 0
CLASSIFICATION_TYPE = U
NORAD_CAT_ID   = 68391
ELEMENT_SET_NO = 999
REV_AT_EPOCH   = 232
BSTAR          = -.3650729E-2
MEAN_MOTION_DOT = -.1776907E-1
MEAN_MOTION_DDOT = .9464416E-3

CCSDS_OMM_VERS = 2.0
CREATION_DATE  = 
ORIGINATOR     = 

OBJECT_NAME    = STARLINK-37215
OBJECT_ID      = 2026-063N
CENTER_NAME    = EARTH
REF_FRAME      = TEME
TIME_SYSTEM    = UTC
MEAN_ELEMENT_THEORY = SGP/SGP4

EPOCH          = 2026-04-02T18:00:02.000160
MEAN_MOTION    = 15.99590160
ECCENTRICITY   = .00014882
INCLINATION    = 97.2820
RA_OF_ASC_NODE = 233.5510
ARG_OF_PERICENTER = 81.0804
MEAN_ANOMALY   = 89.0356

EPHEMERIS_TYPE = 0
CLASSIFICATION_TYPE = U
NORAD_CAT_ID   = 68392
ELEMENT_SET_NO = 999
REV_AT_EPOCH   = 232
BSTAR          = -.36570097E-2
MEAN_MOTION_DOT = -.1794076E-1
MEAN_MOTION_DDOT = .9652646E-3

CCSDS_OMM_VERS = 2.0
CREATION_DATE  = 
ORIGINATOR     = 

OBJECT_NAME    = STARLINK-37184
OBJECT_ID      = 2026-063P
CENTER_NAME    = EARTH
REF_FRAME      = TEME
TIME_SYSTEM    = UTC
MEAN_ELEMENT_THEORY = SGP/SGP4

EPOCH          = 2026-04-02T18:00:02.000160
MEAN_MOTION    = 15.99739684
ECCENTRICITY   = .00015975
INCLINATION    = 97.2823
RA_OF_ASC_NODE = 233.5521
ARG_OF_PERICENTER = 72.4321
MEAN_ANOMALY   = 100.2824

EPHEMERIS_TYPE = 0
CLASSIFICATION_TYPE = U
NORAD_CAT_ID   = 68393
ELEMENT_SET_NO = 999
REV_AT_EPOCH   = 232
BSTAR          = -.36836888E-2
MEAN_MOTION_DOT = -.182213E-1
MEAN_MOTION_DDOT = .99556441E-3

CCSDS_OMM_VERS = 2.0
CREATION_DATE  = 
ORIGINATOR     = 

OBJECT_NAME    = STARLINK-37157
OBJECT_ID      = 2026-063Q
CENTER_NAME    = EARTH
REF_FRAME      = TEME
TIME_SYSTEM    = UTC
MEAN_ELEMENT_THEORY = SGP/SGP4

EPOCH          = 2026-04-02T18:00:02.000160
MEAN_MOTION    = 15.99863067
ECCENTRICITY   = .0001617
INCLINATION    = 97.2820
RA_OF_ASC_NODE = 233.5526
ARG_OF_PERICENTER = 66.7918
MEAN_ANOMALY   = 107.9863

EPHEMERIS_TYPE = 0
CLASSIFICATION_TYPE = U
NORAD_CAT_ID   = 68394
ELEMENT_SET_NO = 999
REV_AT_EPOCH   = 232
BSTAR          = -.3653719E-2
MEAN_MOTION_DOT = -.1819945E-1
MEAN_MOTION_DDOT = .99473566E-3

CCSDS_OMM_VERS = 2.0
CREATION_DATE  = 
ORIGINATOR     = 

OBJECT_NAME    = STARLINK-37172
OBJECT_ID      = 2026-063R
CENTER_NAME    = EARTH
REF_FRAME      = TEME
TIME_SYSTEM    = UTC
MEAN_ELEMENT_THEORY = SGP/SGP4

EPOCH          = 2026-04-02T18:00:02.000160
MEAN_MOTION    = 16.00132100
ECCENTRICITY   = .00015881
INCLINATION    = 97.2814
RA_OF_ASC_NODE = 233.5544
ARG_OF_PERICENTER = 73.7100
MEAN_ANOMALY   = 105.7685

EPHEMERIS_TYPE = 0
CLASSIFICATION_TYPE = U
NORAD_CAT_ID   = 68395
ELEMENT_SET_NO = 999
REV_AT_EPOCH   = 232
BSTAR          = -.36307256E-2
MEAN_MOTION_DOT = -.1835985E-1
MEAN_MOTION_DDOT = .10144756E-2

CCSDS_OMM_VERS = 2.0
CREATION_DATE  = 
ORIGINATOR     = 

OBJECT_NAME    = STARLINK-37190
OBJECT_ID      = 2026-063S
CENTER_NAME    = EARTH
REF_FRAME      = TEME
TIME_SYSTEM    = UTC
MEAN_ELEMENT_THEORY = SGP/SGP4

EPOCH          = 2026-04-02T18:00:02.000160
MEAN_MOTION    = 16.00006807
ECCENTRICITY   = .00014955
INCLINATION    = 97.2814
RA_OF_ASC_NODE = 233.5533
ARG_OF_PERICENTER = 73.3323
MEAN_ANOMALY   = 103.5772

EPHEMERIS_TYPE = 0
CLASSIFICATION_TYPE = U
NORAD_CAT_ID   = 68396
ELEMENT_SET_NO = 999
REV_AT_EPOCH   = 232
BSTAR          = -.36843208E-2
MEAN_MOTION_DOT = -.1849746E-1
MEAN_MOTION_DDOT = .10273662E-2

CCSDS_OMM_VERS = 2.0
CREATION_DATE  = 
ORIGINATOR     = 

OBJECT_NAME    = STARLINK-37194
OBJECT_ID      = 2026-063T
CENTER_NAME    = EARTH
REF_FRAME      = TEME
TIME_SYSTEM    = UTC
MEAN_ELEMENT_THEORY = SGP/SGP4

EPOCH          = 2026-04-02T18:00:02.000160
MEAN_MOTION    = 16.00255178
ECCENTRICITY   = .00016109
INCLINATION    = 97.2815
RA_OF_ASC_NODE = 233.5554
ARG_OF_PERICENTER = 65.7478
MEAN_ANOMALY   = 116.0867

EPHEMERIS_TYPE = 0
CLASSIFICATION_TYPE = U
NORAD_CAT_ID   = 68397
ELEMENT_SET_NO = 999
REV_AT_EPOCH   = 232
BSTAR          = -.35725676E-2
MEAN_MOTION_DOT = -.181941E-1
MEAN_MOTION_DDOT = .99871569E-3

